[{"OBJECT_NAME":"STARLINK-2469","OBJECT_ID":"2021-027AN","EPOCH":"2026-03-09T09:17:04.188192","MEAN_MOTION":15.1882832,"ECCENTRICITY":0.0001315,"INCLINATION":53.1065,"RA_OF_ASC_NODE":102.3811,"ARG_OF_PERICENTER":92.2024,"MEAN_ANOMALY":267.9122,"EPHEMERIS_TYPE":0,"CLASSIFICATION_TYPE":"U","NORAD_CAT_ID":48128,"ELEMENT_SET_NO":999,"REV_AT_EPOCH":27335,"BSTAR":0.0010578489,"MEAN_MOTION_DOT":0.00022048,"MEAN_MOTION_DDOT":0},{"OBJECT_NAME":"SCS-01 L","OBJECT_ID":"2025-100L","EPOCH":"2026-03-09T23:34:47.606016","MEAN_MOTION":15.20947264,"ECCENTRICITY":0.00097838,"INCLINATION":97.3734,"RA_OF_ASC_NODE":144.0559,"ARG_OF_PERICENTER":283.1902,"MEAN_ANOMALY":76.8242,"EPHEMERIS_TYPE":0,"CLASSIFICATION_TYPE":"U","NORAD_CAT_ID":63992,"ELEMENT_SET_NO":999,"REV_AT_EPOCH":4553,"BSTAR":0.00095526864,"MEAN_MOTION_DOT":0.0002115,"MEAN_MOTION_DDOT":0}]
